GLOBALSTAR M023         
1 25621U 99004A   25231.14132234 -.00000079  00000+0  13705-3 0  9996
2 25621  52.0083 221.7444 0010044 265.8685 172.0014 12.62502229223776
GLOBALSTAR M040         
1 25622U 99004B   25230.76569635 -.00000064  00000+0  22298-3 0  9994
2 25622  51.9892 227.1363 0000825 162.8730   8.1818 12.62015286223151
GLOBALSTAR M036         
1 25623U 99004C   25230.87075075 -.00000052  00000+0  44400-3 0  9993
2 25623  51.9966  75.0994 0010890 166.8542 205.8200 11.86606513186425
GLOBALSTAR M038         
1 25624U 99004D   25230.80755532 -.00000057  00000+0  31169-3 0  9993
2 25624  51.9950 251.2341 0001926 182.0409 349.0104 12.32530781210095
GLOBALSTAR M022         
1 25649U 99012A   25230.91907934 -.00000071  00000+0  19160-3 0  9999
2 25649  52.0035 120.3678 0002365 313.6863 127.4576 12.02502483183928
GLOBALSTAR M041         
1 25650U 99012B   25231.53137128 -.00000044  00000+0  53459-3 0  9999
2 25650  52.0049   2.0865 0002227  88.4036 271.7055 11.96682232186106
GLOBALSTAR M046         
1 25651U 99012C   25231.01493043 -.00000184  00000+0 -10492-2 0  9999
2 25651  52.0052  67.9466 0002647  35.8706 130.8856 12.09411240191614
GLOBALSTAR M037         
1 25652U 99012D   25230.65336697 -.00000072  00000+0  17858-3 0  9999
2 25652  52.0033 353.8272 0001530 345.3401 117.5774 12.62449842219167
